{
"type": "FeatureCollection",
"name": "chicago_cluster_centroids",
"crs": { "type": "name", "properties": { "name": "urn:ogc:def:crs:OGC:1.3:CRS84" } },
"features": [
{ "type": "Feature", "properties": { "cluster_id": 0, "centroid_lon": -87.669919072987312, "centroid_lat": 42.009033776168224, "num_points": 8982 }, "geometry": { "type": "Point", "coordinates": [ -87.669919072987312, 42.009033776168224 ] } },
{ "type": "Feature", "properties": { "cluster_id": 1, "centroid_lon": -87.693547038654415, "centroid_lat": 42.00000695823779, "num_points": 15606 }, "geometry": { "type": "Point", "coordinates": [ -87.693547038654415, 42.00000695823779 ] } },
{ "type": "Feature", "properties": { "cluster_id": 2, "centroid_lon": -87.657103096357332, "centroid_lat": 41.966170524693581, "num_points": 9585 }, "geometry": { "type": "Point", "coordinates": [ -87.657103096357332, 41.966170524693581 ] } },
{ "type": "Feature", "properties": { "cluster_id": 3, "centroid_lon": -87.688596544281268, "centroid_lat": 41.973052382713234, "num_points": 7114 }, "geometry": { "type": "Point", "coordinates": [ -87.688596544281268, 41.973052382713234 ] } },
{ "type": "Feature", "properties": { "cluster_id": 4, "centroid_lon": -87.684201827441882, "centroid_lat": 41.947383526390517, "num_points": 6348 }, "geometry": { "type": "Point", "coordinates": [ -87.684201827441882, 41.947383526390517 ] } },
{ "type": "Feature", "properties": { "cluster_id": 5, "centroid_lon": -87.654106998091933, "centroid_lat": 41.943566733820973, "num_points": 16187 }, "geometry": { "type": "Point", "coordinates": [ -87.654106998091933, 41.943566733820973 ] } },
{ "type": "Feature", "properties": { "cluster_id": 6, "centroid_lon": -87.648518637632762, "centroid_lat": 41.922303790629478, "num_points": 14288 }, "geometry": { "type": "Point", "coordinates": [ -87.648518637632762, 41.922303790629478 ] } },
{ "type": "Feature", "properties": { "cluster_id": 7, "centroid_lon": -87.629434416871504, "centroid_lat": 41.896996199320824, "num_points": 35455 }, "geometry": { "type": "Point", "coordinates": [ -87.629434416871504, 41.896996199320824 ] } },
{ "type": "Feature", "properties": { "cluster_id": 8, "centroid_lon": -87.602566438999986, "centroid_lat": 41.893434847999991, "num_points": 21 }, "geometry": { "type": "Point", "coordinates": [ -87.602566438999986, 41.893434848 ] } },
{ "type": "Feature", "properties": { "cluster_id": 9, "centroid_lon": -87.811505484721991, "centroid_lat": 42.004967631666489, "num_points": 1856 }, "geometry": { "type": "Point", "coordinates": [ -87.811505484721991, 42.004967631666489 ] } },
{ "type": "Feature", "properties": { "cluster_id": 10, "centroid_lon": -87.799549766391166, "centroid_lat": 41.986224774081165, "num_points": 7232 }, "geometry": { "type": "Point", "coordinates": [ -87.799549766391166, 41.986224774081165 ] } },
{ "type": "Feature", "properties": { "cluster_id": 11, "centroid_lon": -87.769994171343342, "centroid_lat": 41.976184548883431, "num_points": 5662 }, "geometry": { "type": "Point", "coordinates": [ -87.769994171343342, 41.976184548883431 ] } },
{ "type": "Feature", "properties": { "cluster_id": 12, "centroid_lon": -87.755458770616656, "centroid_lat": 41.98990871695878, "num_points": 4440 }, "geometry": { "type": "Point", "coordinates": [ -87.755458770616656, 41.98990871695878 ] } },
{ "type": "Feature", "properties": { "cluster_id": 13, "centroid_lon": -87.717948429481481, "centroid_lat": 41.985546962475958, "num_points": 5074 }, "geometry": { "type": "Point", "coordinates": [ -87.717948429481481, 41.985546962475958 ] } },
{ "type": "Feature", "properties": { "cluster_id": 14, "centroid_lon": -87.748043052111115, "centroid_lat": 41.981612448222222, "num_points": 9 }, "geometry": { "type": "Point", "coordinates": [ -87.748043052111115, 41.981612448222222 ] } },
{ "type": "Feature", "properties": { "cluster_id": 15, "centroid_lon": -87.720546121480169, "centroid_lat": 41.967218389173716, "num_points": 7639 }, "geometry": { "type": "Point", "coordinates": [ -87.720546121480169, 41.967218389173716 ] } },
{ "type": "Feature", "properties": { "cluster_id": 16, "centroid_lon": -87.760315719958484, "centroid_lat": 41.952971311241384, "num_points": 13779 }, "geometry": { "type": "Point", "coordinates": [ -87.760315719958484, 41.952971311241384 ] } },
{ "type": "Feature", "properties": { "cluster_id": 17, "centroid_lon": -87.723015014191418, "centroid_lat": 41.953050902990213, "num_points": 12261 }, "geometry": { "type": "Point", "coordinates": [ -87.723015014191418, 41.953050902990213 ] } },
{ "type": "Feature", "properties": { "cluster_id": 18, "centroid_lon": -87.802269554186978, "centroid_lat": 41.946473239272557, "num_points": 8145 }, "geometry": { "type": "Point", "coordinates": [ -87.802269554186978, 41.946473239272557 ] } },
{ "type": "Feature", "properties": { "cluster_id": 19, "centroid_lon": -87.798854254799991, "centroid_lat": 41.928491404035761, "num_points": 3020 }, "geometry": { "type": "Point", "coordinates": [ -87.798854254799991, 41.928491404035761 ] } },
{ "type": "Feature", "properties": { "cluster_id": 20, "centroid_lon": -87.76321827768335, "centroid_lat": 41.926987638469555, "num_points": 18313 }, "geometry": { "type": "Point", "coordinates": [ -87.76321827768335, 41.926987638469555 ] } },
{ "type": "Feature", "properties": { "cluster_id": 21, "centroid_lon": -87.733666452687345, "centroid_lat": 41.922957452205523, "num_points": 4238 }, "geometry": { "type": "Point", "coordinates": [ -87.733666452687345, 41.922957452205523 ] } },
{ "type": "Feature", "properties": { "cluster_id": 22, "centroid_lon": -87.711754470648017, "centroid_lat": 41.93854472462494, "num_points": 9401 }, "geometry": { "type": "Point", "coordinates": [ -87.711754470648017, 41.93854472462494 ] } },
{ "type": "Feature", "properties": { "cluster_id": 23, "centroid_lon": -87.697423524063169, "centroid_lat": 41.923444572020323, "num_points": 16732 }, "geometry": { "type": "Point", "coordinates": [ -87.697423524063169, 41.923444572020323 ] } },
{ "type": "Feature", "properties": { "cluster_id": 24, "centroid_lon": -87.721310902569954, "centroid_lat": 41.901709012698404, "num_points": 16240 }, "geometry": { "type": "Point", "coordinates": [ -87.721310902569954, 41.901709012698404 ] } },
{ "type": "Feature", "properties": { "cluster_id": 25, "centroid_lon": -87.672694183330933, "centroid_lat": 41.900859101879561, "num_points": 21596 }, "geometry": { "type": "Point", "coordinates": [ -87.672694183330933, 41.900859101879561 ] } },
{ "type": "Feature", "properties": { "cluster_id": 26, "centroid_lon": -87.759083488412159, "centroid_lat": 41.890767468292836, "num_points": 36218 }, "geometry": { "type": "Point", "coordinates": [ -87.759083488412159, 41.890767468292836 ] } },
{ "type": "Feature", "properties": { "cluster_id": 27, "centroid_lon": -87.729210837212207, "centroid_lat": 41.878831988909894, "num_points": 10344 }, "geometry": { "type": "Point", "coordinates": [ -87.729210837212207, 41.878831988909894 ] } },
{ "type": "Feature", "properties": { "cluster_id": 28, "centroid_lon": -87.706530154934811, "centroid_lat": 41.87842473461297, "num_points": 8883 }, "geometry": { "type": "Point", "coordinates": [ -87.706530154934811, 41.87842473461297 ] } },
{ "type": "Feature", "properties": { "cluster_id": 29, "centroid_lon": -87.660249660331885, "centroid_lat": 41.875521361368023, "num_points": 34386 }, "geometry": { "type": "Point", "coordinates": [ -87.660249660331885, 41.875521361368023 ] } },
{ "type": "Feature", "properties": { "cluster_id": 30, "centroid_lon": -87.717587578457341, "centroid_lat": 41.859878145783199, "num_points": 13736 }, "geometry": { "type": "Point", "coordinates": [ -87.717587578457341, 41.859878145783199 ] } },
{ "type": "Feature", "properties": { "cluster_id": 31, "centroid_lon": -87.710800181759964, "centroid_lat": 41.843485501563535, "num_points": 13614 }, "geometry": { "type": "Point", "coordinates": [ -87.710800181759964, 41.843485501563535 ] } },
{ "type": "Feature", "properties": { "cluster_id": 32, "centroid_lon": -87.734436349730771, "centroid_lat": 41.827857095423084, "num_points": 26 }, "geometry": { "type": "Point", "coordinates": [ -87.734436349730771, 41.827857095423084 ] } },
{ "type": "Feature", "properties": { "cluster_id": 33, "centroid_lon": -87.667140855558344, "centroid_lat": 41.852693463867091, "num_points": 11339 }, "geometry": { "type": "Point", "coordinates": [ -87.667140855558344, 41.852693463867091 ] } },
{ "type": "Feature", "properties": { "cluster_id": 34, "centroid_lon": -87.627069587962666, "centroid_lat": 41.880068433898458, "num_points": 26119 }, "geometry": { "type": "Point", "coordinates": [ -87.627069587962666, 41.880068433898458 ] } },
{ "type": "Feature", "properties": { "cluster_id": 35, "centroid_lon": -87.62257814781438, "centroid_lat": 41.858578509149091, "num_points": 9390 }, "geometry": { "type": "Point", "coordinates": [ -87.62257814781438, 41.858578509149091 ] } },
{ "type": "Feature", "properties": { "cluster_id": 36, "centroid_lon": -87.633450500530316, "centroid_lat": 41.845577897050141, "num_points": 4288 }, "geometry": { "type": "Point", "coordinates": [ -87.633450500530316, 41.845577897050141 ] } },
{ "type": "Feature", "properties": { "cluster_id": 37, "centroid_lon": -87.618817379439818, "centroid_lat": 41.834361937197642, "num_points": 4827 }, "geometry": { "type": "Point", "coordinates": [ -87.618817379439818, 41.834361937197642 ] } },
{ "type": "Feature", "properties": { "cluster_id": 38, "centroid_lon": -87.603874084408545, "centroid_lat": 41.824413041543153, "num_points": 1263 }, "geometry": { "type": "Point", "coordinates": [ -87.603874084408545, 41.824413041543153 ] } },
{ "type": "Feature", "properties": { "cluster_id": 39, "centroid_lon": -87.631743320261705, "centroid_lat": 41.805088796081762, "num_points": 2862 }, "geometry": { "type": "Point", "coordinates": [ -87.631743320261705, 41.805088796081762 ] } },
{ "type": "Feature", "properties": { "cluster_id": 40, "centroid_lon": -87.617724609707963, "centroid_lat": 41.812390080704162, "num_points": 6321 }, "geometry": { "type": "Point", "coordinates": [ -87.617724609707963, 41.812390080704162 ] } },
{ "type": "Feature", "properties": { "cluster_id": 41, "centroid_lon": -87.595078925722063, "centroid_lat": 41.808593294842446, "num_points": 3256 }, "geometry": { "type": "Point", "coordinates": [ -87.595078925722063, 41.808593294842446 ] } },
{ "type": "Feature", "properties": { "cluster_id": 42, "centroid_lon": -87.618687833552201, "centroid_lat": 41.791485766241131, "num_points": 4960 }, "geometry": { "type": "Point", "coordinates": [ -87.618687833552201, 41.791485766241131 ] } },
{ "type": "Feature", "properties": { "cluster_id": 43, "centroid_lon": -87.589355647531292, "centroid_lat": 41.795501514119714, "num_points": 6791 }, "geometry": { "type": "Point", "coordinates": [ -87.589355647531292, 41.795501514119714 ] } },
{ "type": "Feature", "properties": { "cluster_id": 44, "centroid_lon": -87.598140688676025, "centroid_lat": 41.777847166594903, "num_points": 7766 }, "geometry": { "type": "Point", "coordinates": [ -87.598140688676025, 41.777847166594903 ] } },
{ "type": "Feature", "properties": { "cluster_id": 45, "centroid_lon": -87.575804149024918, "centroid_lat": 41.762784736494559, "num_points": 14609 }, "geometry": { "type": "Point", "coordinates": [ -87.575804149024918, 41.762784736494559 ] } },
{ "type": "Feature", "properties": { "cluster_id": 46, "centroid_lon": -87.549408044199978, "centroid_lat": 41.757974243849993, "num_points": 20 }, "geometry": { "type": "Point", "coordinates": [ -87.549408044199978, 41.757974243849993 ] } },
{ "type": "Feature", "properties": { "cluster_id": 47, "centroid_lon": -87.545358545166664, "centroid_lat": 41.754844067166665, "num_points": 12 }, "geometry": { "type": "Point", "coordinates": [ -87.545358545166664, 41.754844067166665 ] } },
{ "type": "Feature", "properties": { "cluster_id": 48, "centroid_lon": -87.617129255473543, "centroid_lat": 41.741675640550632, "num_points": 14271 }, "geometry": { "type": "Point", "coordinates": [ -87.617129255473543, 41.741675640550632 ] } },
{ "type": "Feature", "properties": { "cluster_id": 49, "centroid_lon": -87.585331066418689, "centroid_lat": 41.745559061324208, "num_points": 4636 }, "geometry": { "type": "Point", "coordinates": [ -87.585331066418689, 41.745559061324208 ] } },
{ "type": "Feature", "properties": { "cluster_id": 50, "centroid_lon": -87.558845689782601, "centroid_lat": 41.742040256574882, "num_points": 4848 }, "geometry": { "type": "Point", "coordinates": [ -87.558845689782601, 41.742040256574882 ] } },
{ "type": "Feature", "properties": { "cluster_id": 51, "centroid_lon": -87.597333872891269, "centroid_lat": 41.728142260240432, "num_points": 653 }, "geometry": { "type": "Point", "coordinates": [ -87.597333872891269, 41.728142260240432 ] } },
{ "type": "Feature", "properties": { "cluster_id": 52, "centroid_lon": -87.576550634800242, "centroid_lat": 41.730740485491239, "num_points": 4340 }, "geometry": { "type": "Point", "coordinates": [ -87.576550634800242, 41.730740485491239 ] } },
{ "type": "Feature", "properties": { "cluster_id": 53, "centroid_lon": -87.622710203915048, "centroid_lat": 41.706078094698029, "num_points": 10041 }, "geometry": { "type": "Point", "coordinates": [ -87.622710203915048, 41.706078094698029 ] } },
{ "type": "Feature", "properties": { "cluster_id": 54, "centroid_lon": -87.6327812520625, "centroid_lat": 41.735644853406257, "num_points": 160 }, "geometry": { "type": "Point", "coordinates": [ -87.6327812520625, 41.735644853406257 ] } },
{ "type": "Feature", "properties": { "cluster_id": 55, "centroid_lon": -87.600932606663463, "centroid_lat": 41.70188936437134, "num_points": 2184 }, "geometry": { "type": "Point", "coordinates": [ -87.600932606663463, 41.70188936437134 ] } },
{ "type": "Feature", "properties": { "cluster_id": 56, "centroid_lon": -87.571612947349294, "centroid_lat": 41.716602065554582, "num_points": 5368 }, "geometry": { "type": "Point", "coordinates": [ -87.571612947349294, 41.716602065554582 ] } },
{ "type": "Feature", "properties": { "cluster_id": 57, "centroid_lon": -87.597096181428157, "centroid_lat": 41.693219693519055, "num_points": 341 }, "geometry": { "type": "Point", "coordinates": [ -87.597096181428157, 41.693219693519055 ] } },
{ "type": "Feature", "properties": { "cluster_id": 58, "centroid_lon": -87.585961313818174, "centroid_lat": 41.660733689727273, "num_points": 253 }, "geometry": { "type": "Point", "coordinates": [ -87.585961313818174, 41.660733689727273 ] } },
{ "type": "Feature", "properties": { "cluster_id": 59, "centroid_lon": -87.559403171402167, "centroid_lat": 41.677211534315219, "num_points": 184 }, "geometry": { "type": "Point", "coordinates": [ -87.559403171402167, 41.677211534315219 ] } },
{ "type": "Feature", "properties": { "cluster_id": 60, "centroid_lon": -87.55044197329687, "centroid_lat": 41.666781090203123, "num_points": 64 }, "geometry": { "type": "Point", "coordinates": [ -87.55044197329687, 41.666781090203123 ] } },
{ "type": "Feature", "properties": { "cluster_id": 61, "centroid_lon": -87.564947676059802, "centroid_lat": 41.65929641569231, "num_points": 117 }, "geometry": { "type": "Point", "coordinates": [ -87.564947676059802, 41.65929641569231 ] } },
{ "type": "Feature", "properties": { "cluster_id": 62, "centroid_lon": -87.574196348034462, "centroid_lat": 41.673978186758632, "num_points": 29 }, "geometry": { "type": "Point", "coordinates": [ -87.574196348034462, 41.673978186758632 ] } },
{ "type": "Feature", "properties": { "cluster_id": 63, "centroid_lon": -87.600868656777777, "centroid_lat": 41.675346132722225, "num_points": 18 }, "geometry": { "type": "Point", "coordinates": [ -87.600868656777777, 41.675346132722225 ] } },
{ "type": "Feature", "properties": { "cluster_id": 64, "centroid_lon": -87.535247526838461, "centroid_lat": 41.70590732706539, "num_points": 3349 }, "geometry": { "type": "Point", "coordinates": [ -87.535247526838461, 41.70590732706539 ] } },
{ "type": "Feature", "properties": { "cluster_id": 65, "centroid_lon": -87.636034411043411, "centroid_lat": 41.674134581634931, "num_points": 5851 }, "geometry": { "type": "Point", "coordinates": [ -87.636034411043411, 41.674134581634931 ] } },
{ "type": "Feature", "properties": { "cluster_id": 66, "centroid_lon": -87.607699896626542, "centroid_lat": 41.656653624610421, "num_points": 1612 }, "geometry": { "type": "Point", "coordinates": [ -87.607699896626542, 41.656653624610421 ] } },
{ "type": "Feature", "properties": { "cluster_id": 67, "centroid_lon": -87.607955229285722, "centroid_lat": 41.685423832042851, "num_points": 140 }, "geometry": { "type": "Point", "coordinates": [ -87.607955229285722, 41.685423832042851 ] } },
{ "type": "Feature", "properties": { "cluster_id": 68, "centroid_lon": -87.602300337454551, "centroid_lat": 41.6762489104091, "num_points": 22 }, "geometry": { "type": "Point", "coordinates": [ -87.602300337454551, 41.6762489104091 ] } },
{ "type": "Feature", "properties": { "cluster_id": 69, "centroid_lon": -87.551570868984257, "centroid_lat": 41.656004644480497, "num_points": 1461 }, "geometry": { "type": "Point", "coordinates": [ -87.551570868984257, 41.656004644480497 ] } },
{ "type": "Feature", "properties": { "cluster_id": 70, "centroid_lon": -87.58490839164773, "centroid_lat": 41.659820578034093, "num_points": 88 }, "geometry": { "type": "Point", "coordinates": [ -87.58490839164773, 41.659820578034093 ] } },
{ "type": "Feature", "properties": { "cluster_id": 71, "centroid_lon": -87.539998475421058, "centroid_lat": 41.675220319334365, "num_points": 323 }, "geometry": { "type": "Point", "coordinates": [ -87.539998475421058, 41.675220319334365 ] } },
{ "type": "Feature", "properties": { "cluster_id": 72, "centroid_lon": -87.527724034846173, "centroid_lat": 41.651753125903838, "num_points": 52 }, "geometry": { "type": "Point", "coordinates": [ -87.527724034846173, 41.651753125903838 ] } },
{ "type": "Feature", "properties": { "cluster_id": 73, "centroid_lon": -87.760086797048118, "centroid_lat": 41.798721206471697, "num_points": 10952 }, "geometry": { "type": "Point", "coordinates": [ -87.760086797048118, 41.798721206471697 ] } },
{ "type": "Feature", "properties": { "cluster_id": 74, "centroid_lon": -87.725191284369728, "centroid_lat": 41.808380553434368, "num_points": 6156 }, "geometry": { "type": "Point", "coordinates": [ -87.725191284369728, 41.808380553434368 ] } },
{ "type": "Feature", "properties": { "cluster_id": 75, "centroid_lon": -87.716071687538474, "centroid_lat": 41.823977836461545, "num_points": 13 }, "geometry": { "type": "Point", "coordinates": [ -87.716071687538474, 41.823977836461545 ] } },
{ "type": "Feature", "properties": { "cluster_id": 76, "centroid_lon": -87.696452162097714, "centroid_lat": 41.816511583471637, "num_points": 10470 }, "geometry": { "type": "Point", "coordinates": [ -87.696452162097714, 41.816511583471637 ] } },
{ "type": "Feature", "properties": { "cluster_id": 77, "centroid_lon": -87.675443799325762, "centroid_lat": 41.830617365041007, "num_points": 5194 }, "geometry": { "type": "Point", "coordinates": [ -87.675443799325762, 41.830617365041007 ] } },
{ "type": "Feature", "properties": { "cluster_id": 78, "centroid_lon": -87.647817074657439, "centroid_lat": 41.836730992918881, "num_points": 4697 }, "geometry": { "type": "Point", "coordinates": [ -87.647817074657439, 41.836730992918881 ] } },
{ "type": "Feature", "properties": { "cluster_id": 79, "centroid_lon": -87.662093237084491, "centroid_lat": 41.807644439321699, "num_points": 10286 }, "geometry": { "type": "Point", "coordinates": [ -87.662093237084491, 41.807644439321699 ] } },
{ "type": "Feature", "properties": { "cluster_id": 80, "centroid_lon": -87.723812875744017, "centroid_lat": 41.793338665782343, "num_points": 4383 }, "geometry": { "type": "Point", "coordinates": [ -87.723812875744017, 41.793338665782343 ] } },
{ "type": "Feature", "properties": { "cluster_id": 81, "centroid_lon": -87.696204979264635, "centroid_lat": 41.794668039500287, "num_points": 8721 }, "geometry": { "type": "Point", "coordinates": [ -87.696204979264635, 41.794668039500287 ] } },
{ "type": "Feature", "properties": { "cluster_id": 82, "centroid_lon": -87.760164657736695, "centroid_lat": 41.778422649666979, "num_points": 5336 }, "geometry": { "type": "Point", "coordinates": [ -87.760164657736695, 41.778422649666979 ] } },
{ "type": "Feature", "properties": { "cluster_id": 83, "centroid_lon": -87.726463749333917, "centroid_lat": 41.772113288483915, "num_points": 9173 }, "geometry": { "type": "Point", "coordinates": [ -87.726463749333917, 41.772113288483915 ] } },
{ "type": "Feature", "properties": { "cluster_id": 84, "centroid_lon": -87.693500795935037, "centroid_lat": 41.774535981959247, "num_points": 13374 }, "geometry": { "type": "Point", "coordinates": [ -87.693500795935037, 41.774535981959247 ] } },
{ "type": "Feature", "properties": { "cluster_id": 85, "centroid_lon": -87.66517397927845, "centroid_lat": 41.775249739886497, "num_points": 11471 }, "geometry": { "type": "Point", "coordinates": [ -87.66517397927845, 41.775249739886497 ] } },
{ "type": "Feature", "properties": { "cluster_id": 86, "centroid_lon": -87.642190554151796, "centroid_lat": 41.776924694545777, "num_points": 10125 }, "geometry": { "type": "Point", "coordinates": [ -87.642190554151796, 41.776924694545777 ] } },
{ "type": "Feature", "properties": { "cluster_id": 87, "centroid_lon": -87.618412525289216, "centroid_lat": 41.76274360451832, "num_points": 16600 }, "geometry": { "type": "Point", "coordinates": [ -87.618412525289216, 41.76274360451832 ] } },
{ "type": "Feature", "properties": { "cluster_id": 88, "centroid_lon": -87.71006718952124, "centroid_lat": 41.745262050597944, "num_points": 10220 }, "geometry": { "type": "Point", "coordinates": [ -87.71006718952124, 41.745262050597944 ] } },
{ "type": "Feature", "properties": { "cluster_id": 89, "centroid_lon": -87.654626036008366, "centroid_lat": 41.74491407961559, "num_points": 14357 }, "geometry": { "type": "Point", "coordinates": [ -87.654626036008366, 41.74491407961559 ] } },
{ "type": "Feature", "properties": { "cluster_id": 90, "centroid_lon": -87.675778899337359, "centroid_lat": 41.713891479815715, "num_points": 5220 }, "geometry": { "type": "Point", "coordinates": [ -87.675778899337359, 41.713891479815715 ] } },
{ "type": "Feature", "properties": { "cluster_id": 91, "centroid_lon": -87.649260698052089, "centroid_lat": 41.717728955877895, "num_points": 8198 }, "geometry": { "type": "Point", "coordinates": [ -87.649260698052089, 41.717728955877895 ] } },
{ "type": "Feature", "properties": { "cluster_id": 92, "centroid_lon": -87.70945221835477, "centroid_lat": 41.695032331559275, "num_points": 3281 }, "geometry": { "type": "Point", "coordinates": [ -87.70945221835477, 41.695032331559275 ] } },
{ "type": "Feature", "properties": { "cluster_id": 93, "centroid_lon": -87.739372861677637, "centroid_lat": 41.688560585486847, "num_points": 152 }, "geometry": { "type": "Point", "coordinates": [ -87.739372861677637, 41.688560585486847 ] } },
{ "type": "Feature", "properties": { "cluster_id": 94, "centroid_lon": -87.666083592119605, "centroid_lat": 41.689081457164455, "num_points": 6178 }, "geometry": { "type": "Point", "coordinates": [ -87.666083592119605, 41.689081457164455 ] } },
{ "type": "Feature", "properties": { "cluster_id": 95, "centroid_lon": -87.839607601284285, "centroid_lat": 41.966849038263021, "num_points": 2304 }, "geometry": { "type": "Point", "coordinates": [ -87.839607601284285, 41.966849038263021 ] } },
{ "type": "Feature", "properties": { "cluster_id": 96, "centroid_lon": -87.905309125000031, "centroid_lat": 41.976201139000004, "num_points": 1184 }, "geometry": { "type": "Point", "coordinates": [ -87.905309125000031, 41.976201139 ] } },
{ "type": "Feature", "properties": { "cluster_id": 97, "centroid_lon": -87.914153388828524, "centroid_lat": 41.953739650071448, "num_points": 70 }, "geometry": { "type": "Point", "coordinates": [ -87.914153388828524, 41.953739650071448 ] } },
{ "type": "Feature", "properties": { "cluster_id": 98, "centroid_lon": -87.883624136767949, "centroid_lat": 41.994778786149162, "num_points": 181 }, "geometry": { "type": "Point", "coordinates": [ -87.883624136767949, 41.994778786149162 ] } },
{ "type": "Feature", "properties": { "cluster_id": 99, "centroid_lon": -87.877634480400005, "centroid_lat": 41.977032923463646, "num_points": 110 }, "geometry": { "type": "Point", "coordinates": [ -87.877634480400005, 41.977032923463646 ] } },
{ "type": "Feature", "properties": { "cluster_id": 100, "centroid_lon": -87.897335394357142, "centroid_lat": 41.953320803321432, "num_points": 84 }, "geometry": { "type": "Point", "coordinates": [ -87.897335394357142, 41.953320803321432 ] } },
{ "type": "Feature", "properties": { "cluster_id": 101, "centroid_lon": -87.886254022388883, "centroid_lat": 41.95813285201389, "num_points": 72 }, "geometry": { "type": "Point", "coordinates": [ -87.886254022388883, 41.95813285201389 ] } },
{ "type": "Feature", "properties": { "cluster_id": 102, "centroid_lon": -87.863849583294112, "centroid_lat": 41.973386758647059, "num_points": 17 }, "geometry": { "type": "Point", "coordinates": [ -87.863849583294112, 41.973386758647059 ] } },
{ "type": "Feature", "properties": { "cluster_id": 103, "centroid_lon": -87.879891315470587, "centroid_lat": 41.988793732588235, "num_points": 17 }, "geometry": { "type": "Point", "coordinates": [ -87.879891315470587, 41.988793732588235 ] } },
{ "type": "Feature", "properties": { "cluster_id": 104, "centroid_lon": -87.66245479371409, "centroid_lat": 41.987289061715565, "num_points": 10867 }, "geometry": { "type": "Point", "coordinates": [ -87.66245479371409, 41.987289061715565 ] } },
{ "type": "Feature", "properties": { "cluster_id": 105, "centroid_lon": -87.934100760900023, "centroid_lat": 41.959111520433332, "num_points": 60 }, "geometry": { "type": "Point", "coordinates": [ -87.934100760900023, 41.959111520433332 ] } },
{ "type": "Feature", "properties": { "cluster_id": 106, "centroid_lon": -87.608355950952372, "centroid_lat": 41.892267132809522, "num_points": 21 }, "geometry": { "type": "Point", "coordinates": [ -87.608355950952372, 41.892267132809522 ] } },
{ "type": "Feature", "properties": { "cluster_id": 107, "centroid_lon": -87.721922642533343, "centroid_lat": 41.683825252866662, "num_points": 15 }, "geometry": { "type": "Point", "coordinates": [ -87.721922642533343, 41.683825252866662 ] } },
{ "type": "Feature", "properties": { "cluster_id": 108, "centroid_lon": -87.836433754000026, "centroid_lat": 41.986382969000005, "num_points": 38 }, "geometry": { "type": "Point", "coordinates": [ -87.836433754000026, 41.986382969 ] } },
{ "type": "Feature", "properties": { "cluster_id": 109, "centroid_lon": -87.718289054999985, "centroid_lat": 41.997328944428567, "num_points": 21 }, "geometry": { "type": "Point", "coordinates": [ -87.718289054999985, 41.997328944428567 ] } },
{ "type": "Feature", "properties": { "cluster_id": 110, "centroid_lon": -87.927441583000004, "centroid_lat": 41.955479690375, "num_points": 16 }, "geometry": { "type": "Point", "coordinates": [ -87.927441583, 41.955479690375 ] } },
{ "type": "Feature", "properties": { "cluster_id": 111, "centroid_lon": -87.693614397166655, "centroid_lat": 41.691761822333326, "num_points": 12 }, "geometry": { "type": "Point", "coordinates": [ -87.693614397166655, 41.691761822333326 ] } },
{ "type": "Feature", "properties": { "cluster_id": 112, "centroid_lon": -87.788160793666677, "centroid_lat": 41.968444374833339, "num_points": 12 }, "geometry": { "type": "Point", "coordinates": [ -87.788160793666677, 41.968444374833339 ] } }
]
}
